IRIDIUM 171             
1 43929U 19002H   24145.52179423  .00000193  00000+0  61845-4 0  9998
2 43929  86.3945 308.7656 0002224  96.3741 263.7708 14.34214374280937
IRIDIUM 170             
1 43930U 19002J   24145.53926759  .00002208  00000+0  34614-3 0  9995
2 43930  86.6067 308.5817 0002415  88.2686 271.8807 14.72253975288372
IRIDIUM 167             
1 43931U 19002K   24145.51544983  .00000611  00000+0  21119-3 0  9991
2 43931  86.3937 308.5612 0002078  92.9654 267.1780 14.34217126280939
IRIDIUM 181             
1 56726U 23068S   24145.60883017  .00000705  00000+0  20247-3 0  9993
2 56726  86.8650   1.1066 0002074  90.0355 270.1084 14.43578477 53730
IRIDIUM 177             
1 56727U 23068T   24145.56457410  .00000754  00000+0  95836-4 0  9994
2 56727  86.1955 326.5823 0002269  98.7787 261.3691 14.80201248 54880
IRIDIUM 174             
1 56728U 23068U   24145.55913895  .00000638  00000+0  80470-4 0  9997
2 56728  86.1960 326.6867 0001994  89.4010 270.7439 14.80200025 54882
IRIDIUM 178             
1 56729U 23068V   24145.55374914  .00002631  00000+0  34265-3 0  9996
2 56729  86.5775 343.0337 0002533  73.8123 286.3377 14.80242962 54888
IRIDIUM 179             
1 56730U 23068W   24145.61595100  .00002603  00000+0  33898-3 0  9997
2 56730  86.6789 346.8442 0002516  73.5220 286.6278 14.80251276 54892
